start=new Date('2022-12-14T00:00:00.000Z').valueOf();
sats=[{"MEAN_MOTION_DOT":"-0.00000960","REF_FRAME":"TEME","DECAY_DATE":null,"FILE":"3697190","APOAPSIS":"541.448","TLE_LINE2":"2 51873  53.2195 277.4420 0002429  28.1282 331.9841 15.08832810 44606","INCLINATION":"53.2195","EPHEMERIS_TYPE":"0","CENTER_NAME":"EARTH","RCS_SIZE":"LARGE","CLASSIFICATION_TYPE":"U","MEAN_ANOMALY":"331.9841","OBJECT_TYPE":"PAYLOAD","ELEMENT_SET_NO":"999","PERIAPSIS":"538.087","MEAN_MOTION":"15.08832810","MEAN_MOTION_DDOT":"0.0000000000000","LAUNCH_DATE":"2022-03-03","MEAN_ELEMENT_THEORY":"SGP4","BSTAR":"-0.00004221500000","NORAD_CAT_ID":"51873","GP_ID":"220278768","SITE":"AFETR","REV_AT_EPOCH":"4460","COUNTRY_CODE":"US","ARG_OF_PERICENTER":"28.1282","TIME_SYSTEM":"UTC","OBJECT_ID":"2022-022X","RA_OF_ASC_NODE":"277.4420","PERIOD":"95.438","TLE_LINE1":"1 51873U 22022X   22347.21808532 -.00000960  00000-0 -42215-4 0  9994","SEMIMAJOR_AXIS":"6917.902","OBJECT_NAME":"STARLINK-3582","EPOCH":"2022-12-13T05:14:02.571648","ECCENTRICITY":"0.00024290"},{"OBJECT_NAME":"STARLINK-3574","SEMIMAJOR_AXIS":"6917.873","ECCENTRICITY":"0.00024070","EPOCH":"2022-12-13T05:24:37.776672","TLE_LINE1":"1 51874U 22022Y   22347.22543723 -.00000449  00000-0 -10059-4 0  9997","PERIOD":"95.437","RA_OF_ASC_NODE":"277.4185","SITE":"AFETR","GP_ID":"220279520","NORAD_CAT_ID":"51874","ARG_OF_PERICENTER":"31.6903","TIME_SYSTEM":"UTC","OBJECT_ID":"2022-022Y","REV_AT_EPOCH":"4459","COUNTRY_CODE":"US","BSTAR":"-0.00001005900000","MEAN_ELEMENT_THEORY":"SGP4","LAUNCH_DATE":"2022-03-03","OBJECT_TYPE":"PAYLOAD","ELEMENT_SET_NO":"999","MEAN_ANOMALY":"328.4234","CLASSIFICATION_TYPE":"U","MEAN_MOTION":"15.08842403","MEAN_MOTION_DDOT":"0.0000000000000","PERIAPSIS":"538.073","TLE_LINE2":"2 51874  53.2181 277.4185 0002407  31.6903 328.4234 15.08842403 44599","EPHEMERIS_TYPE":"0","CENTER_NAME":"EARTH","RCS_SIZE":"LARGE","INCLINATION":"53.2181","REF_FRAME":"TEME","MEAN_MOTION_DOT":"-0.00000449","DECAY_DATE":null,"APOAPSIS":"541.403","FILE":"3697190"},{"MEAN_ELEMENT_THEORY":"SGP4","BSTAR":"-0.00010691000000","COUNTRY_CODE":"US","REV_AT_EPOCH":"4465","OBJECT_ID":"2022-022Z","TIME_SYSTEM":"UTC","ARG_OF_PERICENTER":"31.2423","GP_ID":"220279758","NORAD_CAT_ID":"51875","SITE":"AFETR","PERIOD":"95.437","RA_OF_ASC_NODE":"275.9982","TLE_LINE1":"1 51875U 22022Z   22347.54287656 -.00001990  00000-0 -10691-3 0  9996","EPOCH":"2022-12-13T13:01:44.534784","ECCENTRICITY":"0.00024520","SEMIMAJOR_AXIS":"6917.849","OBJECT_NAME":"STARLINK-3585","FILE":"3697190","APOAPSIS":"541.410","DECAY_DATE":null,"MEAN_MOTION_DOT":"-0.00001990","REF_FRAME":"TEME","INCLINATION":"53.2176","RCS_SIZE":"LARGE","CENTER_NAME":"EARTH","EPHEMERIS_TYPE":"0","TLE_LINE2":"2 51875  53.2176 275.9982 0002452  31.2423 328.8714 15.08850346 44654","PERIAPSIS":"538.018","MEAN_MOTION":"15.08850346","MEAN_MOTION_DDOT":"0.0000000000000","CLASSIFICATION_TYPE":"U","MEAN_ANOMALY":"328.8714","ELEMENT_SET_NO":"999","OBJECT_TYPE":"PAYLOAD","LAUNCH_DATE":"2022-03-03"},{"OBJECT_TYPE":"PAYLOAD","ELEMENT_SET_NO":"999","CLASSIFICATION_TYPE":"U","MEAN_ANOMALY":"335.9980","MEAN_MOTION":"15.08834984","MEAN_MOTION_DDOT":"0.0000000000000","PERIAPSIS":"537.802","LAUNCH_DATE":"2022-03-03","REF_FRAME":"TEME","MEAN_MOTION_DOT":"-0.00001167","DECAY_DATE":null,"APOAPSIS":"541.719","FILE":"3697190","TLE_LINE2":"2 51876  53.2180 277.4217 0002831  24.1144 335.9980 15.08834984 44609","EPHEMERIS_TYPE":"0","RCS_SIZE":"LARGE","CENTER_NAME":"EARTH","INCLINATION":"53.2180","TLE_LINE1":"1 51876U 22022AA  22347.22177371 -.00001167  00000-0 -55233-4 0  9992","PERIOD":"95.438","RA_OF_ASC_NODE":"277.4217","OBJECT_NAME":"STARLINK-3583","SEMIMAJOR_AXIS":"6917.896","ECCENTRICITY":"0.00028310","EPOCH":"2022-12-13T05:19:21.248544","BSTAR":"-0.00005523300000","MEAN_ELEMENT_THEORY":"SGP4","SITE":"AFETR","GP_ID":"220278020","NORAD_CAT_ID":"51876","ARG_OF_PERICENTER":"24.1144","TIME_SYSTEM":"UTC","OBJECT_ID":"2022-022AA","REV_AT_EPOCH":"4460","COUNTRY_CODE":"US"},{"EPHEMERIS_TYPE":"0","CENTER_NAME":"EARTH","RCS_SIZE":"LARGE","INCLINATION":"53.2168","TLE_LINE2":"2 51877  53.2168 264.8318 0002105  35.6935 324.4198 15.08842637 44829","APOAPSIS":"541.194","FILE":"3698003","MEAN_MOTION_DOT":"-0.00000238","REF_FRAME":"TEME","DECAY_DATE":null,"LAUNCH_DATE":"2022-03-03","MEAN_MOTION_DDOT":"0.0000000000000","MEAN_MOTION":"15.08842637","PERIAPSIS":"538.281","ELEMENT_SET_NO":"999","OBJECT_TYPE":"PAYLOAD","MEAN_ANOMALY":"324.4198","CLASSIFICATION_TYPE":"U","ARG_OF_PERICENTER":"35.6935","TIME_SYSTEM":"UTC","OBJECT_ID":"2022-022AB","REV_AT_EPOCH":"4482","COUNTRY_CODE":"US","SITE":"AFETR","NORAD_CAT_ID":"51877","GP_ID":"220322539","BSTAR":"0.00000316250000","MEAN_ELEMENT_THEORY":"SGP4","ECCENTRICITY":"0.00021050","EPOCH":"2022-12-13T19:12:37.564992","OBJECT_NAME":"STARLINK-3556","SEMIMAJOR_AXIS":"6917.872","TLE_LINE1":"1 51877U 22022AB  22347.80043478 -.00000238  00000-0  31625-5 0  9994","RA_OF_ASC_NODE":"264.8318","PERIOD":"95.437"},{"INCLINATION":"53.2174","EPHEMERIS_TYPE":"0","RCS_SIZE":"LARGE","CENTER_NAME":"EARTH","TLE_LINE2":"2 51878  53.2174 275.9852 0002800  31.9467 328.1695 15.08843871 44659","FILE":"3697698","APOAPSIS":"541.671","MEAN_MOTION_DOT":"0.00000864","REF_FRAME":"TEME","DECAY_DATE":null,"LAUNCH_DATE":"2022-03-03","PERIAPSIS":"537.797","MEAN_MOTION_DDOT":"0.0000000000000","MEAN_MOTION":"15.08843871","MEAN_ANOMALY":"328.1695","CLASSIFICATION_TYPE":"U","OBJECT_TYPE":"PAYLOAD","ELEMENT_SET_NO":"999","REV_AT_EPOCH":"4465","COUNTRY_CODE":"US","TIME_SYSTEM":"UTC","ARG_OF_PERICENTER":"31.9467","OBJECT_ID":"2022-022AC","NORAD_CAT_ID":"51878","GP_ID":"220291641","SITE":"AFETR","MEAN_ELEMENT_THEORY":"SGP4","BSTAR":"0.00007237600000","EPOCH":"2022-12-13T13:05:39.738912","ECCENTRICITY":"0.00028000","SEMIMAJOR_AXIS":"6917.869","OBJECT_NAME":"STARLINK-3575","RA_OF_ASC_NODE":"275.9852","PERIOD":"95.437","TLE_LINE1":"1 51878U 22022AC  22347.54559883  .00000864  00000-0  72376-4 0  9999"},{"MEAN_ELEMENT_THEORY":"SGP4","BSTAR":"0.00016479000000","REV_AT_EPOCH":"4473","COUNTRY_CODE":"US","TIME_SYSTEM":"UTC","ARG_OF_PERICENTER":"31.3614","OBJECT_ID":"2022-022AD","GP_ID":"220279259","NORAD_CAT_ID":"51879","SITE":"AFETR","RA_OF_ASC_NODE":"267.5400","PERIOD":"95.437","TLE_LINE1":"1 51879U 22022AD  22347.19691397  .00002336  00000-0  16479-3 0  9995","EPOCH":"2022-12-13T04:43:33.367008","ECCENTRICITY":"0.00024840","SEMIMAJOR_AXIS":"6917.855","OBJECT_NAME":"STARLINK-3572","FILE":"3697190","APOAPSIS":"541.438","MEAN_MOTION_DOT":"0.00002336","REF_FRAME":"TEME","DECAY_DATE":null,"INCLINATION":"53.2177","EPHEMERIS_TYPE":"0","RCS_SIZE":"LARGE","CENTER_NAME":"EARTH","TLE_LINE2":"2 51879  53.2177 267.5400 0002484  31.3614 328.7526 15.08848441 44731","PERIAPSIS":"538.001","MEAN_MOTION_DDOT":"0.0000000000000","MEAN_MOTION":"15.08848441","MEAN_ANOMALY":"328.7526","CLASSIFICATION_TYPE":"U","OBJECT_TYPE":"PAYLOAD","ELEMENT_SET_NO":"999","LAUNCH_DATE":"2022-03-03"},{"REV_AT_EPOCH":"4459","COUNTRY_CODE":"US","ARG_OF_PERICENTER":"39.3140","TIME_SYSTEM":"UTC","OBJECT_ID":"2022-022AE","GP_ID":"220278519","NORAD_CAT_ID":"51880","SITE":"AFETR","MEAN_ELEMENT_THEORY":"SGP4","BSTAR":"-0.00001181100000","EPOCH":"2022-12-13T04:17:07.298016","ECCENTRICITY":"0.00022590","SEMIMAJOR_AXIS":"6917.884","OBJECT_NAME":"STARLINK-3566","PERIOD":"95.438","RA_OF_ASC_NODE":"277.6235","TLE_LINE1":"1 51880U 22022AE  22347.17855669 -.00000476  00000-0 -11811-4 0  9990","INCLINATION":"53.2164","EPHEMERIS_TYPE":"0","RCS_SIZE":"LARGE","CENTER_NAME":"EARTH","TLE_LINE2":"2 51880  53.2164 277.6235 0002259  39.3140 320.8015 15.08838955 44598","FILE":"3697190","APOAPSIS":"541.311","MEAN_MOTION_DOT":"-0.00000476","REF_FRAME":"TEME","DECAY_DATE":null,"LAUNCH_DATE":"2022-03-03","PERIAPSIS":"538.186","MEAN_MOTION_DDOT":"0.0000000000000","MEAN_MOTION":"15.08838955","MEAN_ANOMALY":"320.8015","CLASSIFICATION_TYPE":"U","OBJECT_TYPE":"PAYLOAD","ELEMENT_SET_NO":"999"},{"SITE":"AFETR","GP_ID":"220278769","NORAD_CAT_ID":"51881","ARG_OF_PERICENTER":"26.6885","TIME_SYSTEM":"UTC","OBJECT_ID":"2022-022AF","REV_AT_EPOCH":"4483","COUNTRY_CODE":"US","BSTAR":"0.00006175900000","MEAN_ELEMENT_THEORY":"SGP4","OBJECT_NAME":"STARLINK-3504","SEMIMAJOR_AXIS":"6917.868","ECCENTRICITY":"0.00030690","EPOCH":"2022-12-13T12:29:53.587968","TLE_LINE1":"1 51881U 22022AF  22347.52075912  .00000695  00000-0  61759-4 0  9992","PERIOD":"95.437","RA_OF_ASC_NODE":"266.0929","TLE_LINE2":"2 51881  53.2175 266.0929 0003069  26.6885 333.4264 15.08843935 44835","EPHEMERIS_TYPE":"0","RCS_SIZE":"LARGE","CENTER_NAME":"EARTH","INCLINATION":"53.2175","MEAN_MOTION_DOT":"0.00000695","REF_FRAME":"TEME","DECAY_DATE":null,"APOAPSIS":"541.856","FILE":"3697190","LAUNCH_DATE":"2022-03-03","OBJECT_TYPE":"PAYLOAD","ELEMENT_SET_NO":"999","MEAN_ANOMALY":"333.4264","CLASSIFICATION_TYPE":"U","MEAN_MOTION":"15.08843935","MEAN_MOTION_DDOT":"0.0000000000000","PERIAPSIS":"537.610"},{"MEAN_ELEMENT_THEORY":"SGP4","BSTAR":"0.00006090700000","COUNTRY_CODE":"US","REV_AT_EPOCH":"4487","OBJECT_ID":"2022-022AG","ARG_OF_PERICENTER":"23.7378","TIME_SYSTEM":"UTC","GP_ID":"220322789","NORAD_CAT_ID":"51882","SITE":"AFETR","PERIOD":"95.438","RA_OF_ASC_NODE":"264.8360","TLE_LINE1":"1 51882U 22022AG  22347.79675681  .00000681  00000-0  60907-4 0  9990","EPOCH":"2022-12-13T19:07:19.788384","ECCENTRICITY":"0.00028430","SEMIMAJOR_AXIS":"6917.903","OBJECT_NAME":"STARLINK-3570","FILE":"3698003","APOAPSIS":"541.735","DECAY_DATE":null,"MEAN_MOTION_DOT":"0.00000681","REF_FRAME":"TEME","INCLINATION":"53.2171","RCS_SIZE":"LARGE","CENTER_NAME":"EARTH","EPHEMERIS_TYPE":"0","TLE_LINE2":"2 51882  53.2171 264.8360 0002843  23.7378 336.3745 15.08832536 44876","PERIAPSIS":"537.801","MEAN_MOTION":"15.08832536","MEAN_MOTION_DDOT":"0.0000000000000","CLASSIFICATION_TYPE":"U","MEAN_ANOMALY":"336.3745","OBJECT_TYPE":"PAYLOAD","ELEMENT_SET_NO":"999","LAUNCH_DATE":"2022-03-03"}];
